OPS 6582 (TRANSIT 5B-5) 
1 00965U 64083D   22268.71157346  .00000036  00000+0  38263-4 0  9999
2 00965  90.0334 195.7408 0039340 297.5555 126.4103 13.56787780859687
OSCAR 7 (AO-7)          
1 07530U 74089B   22268.50187965 -.00000039  00000+0  46467-4 0  9997
2 07530 101.9163 248.7250 0011932 209.1950 268.1065 12.53657228190007
UOSAT 2 (UO-11)         
1 14781U 84021B   22268.46281622  .00000899  00000+0  11455-3 0  9991
2 14781  97.6273 251.3930 0008386   4.3057 355.8228 14.83817243 54872
NOAA 9                  
1 15427U 84123A   22268.84068031  .00000085  00000+0  66196-4 0  9991
2 15427  99.0570 242.8524 0013912 239.4771 159.3057 14.16224691951053
LUSAT (LO-19)           
1 20442U 90005G   22268.50172873  .00000113  00000+0  58112-4 0  9994
2 20442  98.8058 234.9456 0010802 232.2513 127.7692 14.33087864707433
ITAMSAT (IO-26)         
1 22826U 93061D   22268.06763682  .00000088  00000+0  51545-4 0  9996
2 22826  98.8746 301.0508 0010039 106.4319 253.7967 14.30541657512652
RADIO ROSTO (RS-15)     
1 23439U 94085A   22268.52804511 -.00000039  00000+0  10000-3 0  9999
2 23439  64.8213 343.7558 0167924 255.4372 102.7874 11.27572362142775
JAS-2 (FO-29)           
1 24278U 96046B   22268.55205078 -.00000020  00000+0  14690-4 0  9996
2 24278  98.5156 278.4641 0350695  23.7256 337.9621 13.53120436289394
NOAA 15                 
1 25338U 98030A   22268.81645139  .00000123  00000+0  69716-4 0  9996
2 25338  98.6380 297.0104 0010449  11.4851 348.6565 14.26173751267579
TECHSAT 1B (GO-32)      
1 25397U 98043D   22268.78277843  .00000052  00000+0  42528-4 0  9997
2 25397  98.8273 219.5576 0001646 137.4108 222.7198 14.23772311257928
ISS (ZARYA)             
1 25544U 98067A   22268.84044201  .00009393  00000+0  17066-3 0  9999
2 25544  51.6422 197.9112 0002361 293.1996 162.8355 15.50281995360793
ORSTED                  
1 25635U 99008B   22268.51422951  .00000409  00000+0  10457-3 0  9998
2 25635  96.4489 109.9610 0136894 221.3862 137.6903 14.48535007244763
PHASE 3D (AO-40)        
1 26609U 00072B   22268.10315586 -.00000023  00000+0  00000+0 0  9995
2 26609   5.6896 246.2482 7980589  59.2937 355.4892  1.25588965100408
PCSAT (NO-44)           
1 26931U 01043C   22268.06750659  .00000110  00000+0  73727-4 0  9998
2 26931  67.0512 161.2731 0005903 257.9648 102.0792 14.30735872 95659
SAUDISAT 1C (SO-50)     
1 27607U 02058C   22268.51691371  .00000791  00000+0  12840-3 0  9994
2 27607  64.5566 355.6622 0081581 275.3387  83.8412 14.76257999 63142
CUTE-1 (CO-55)          
1 27844U 03031E   22268.51993251  .00000227  00000+0  12138-3 0  9995
2 27844  98.6813 274.7062 0010034 165.9014 194.2446 14.22498265998092
CUBESAT XI-IV (CO-57)   
1 27848U 03031J   22268.51426602  .00000183  00000+0  10258-3 0  9992
2 27848  98.6856 275.1987 0009690 180.1896 179.9280 14.22049106997908
MOZHAYETS 4 (RS-22)     
1 27939U 03042A   22268.77015768  .00000701  00000+0  13255-3 0  9996
2 27939  98.2056  49.5490 0011693 249.6638 110.3321 14.67477555 15751
INMARSAT 4-F1           
1 28628U 05009A   22268.48471699 -.00000257  00000+0  00000+0 0  9991
2 28628   3.6846  36.0187 0002817 156.9009 129.3786  1.00272096 64023
NOAA 18                 
1 28654U 05018A   22268.70369970  .00000178  00000+0  12007-3 0  9998
2 28654  98.9412 339.0235 0014947  51.5425 308.7085 14.12779857894229
CUBESAT XI-V            
1 28895U 05043F   22268.34517647  .00000990  00000+0  19548-3 0  9998
2 28895  98.1201  38.2652 0016586 182.7203 177.3913 14.64492325902035
METOP-A                 
1 29499U 06044A   22268.47305391  .00001119  00000+0  15556-3 0  9995
2 29499  98.4419 316.2250 0198423  54.6642  57.1874 14.67409077825342
CARTOSAT-2 (IRS-P7)     
1 29710U 07001B   22268.30994352  .00020633  00000+0  47667-3 0  9998
2 29710  97.8725  19.7879 0143920  66.8344 294.7984 15.32322840851513
FALCONSAT-3             
1 30776U 07006E   22268.49025522  .00060515  00000+0  69012-3 0  9992
2 30776  35.4299 321.5763 0002059 199.5014 160.5641 15.61085494865183
CAPE-1                  
1 31130U 07012P   22268.28519079  .00001186  00000+0  25758-3 0  9994
2 31130  98.2750 208.1855 0094747 344.8478  14.9886 14.57259740819636
CARTOSAT-2A             
1 32783U 08021A   22268.77370266  .00000438  00000+0  66843-4 0  9997
2 32783  97.9571 327.9420 0012173 198.5702 161.5066 14.78639668777842
CUTE-1.7+APD II (CO-65) 
1 32785U 08021C   22268.77863023  .00002272  00000+0  24160-3 0  9990
2 32785  97.6684 236.5229 0010905 260.3763  99.6223 14.89900213781495
COMPASS-1               
1 32787U 08021E   22268.50560483  .00004393  00000+0  39195-3 0  9997
2 32787  97.5730 247.1573 0012152 160.1612 200.0085 14.96411206783060
AAUSAT-II               
1 32788U 08021F   22268.37855263  .00005542  00000+0  47100-3 0  9998
2 32788  97.5441 250.2447 0012531 136.6825 223.5385 14.98192292783392
DELFI-C3 (DO-64)        
1 32789U 08021G   22268.03352490  .00016156  00000+0  84651-3 0  9991
2 32789  97.3341 290.8418 0008890 349.6199  10.4849 15.15834784787000
SEEDS II (CO-66)        
1 32791U 08021J   22268.44587729  .00002562  00000+0  25069-3 0  9998
2 32791  97.6220 241.5913 0011619 210.2973 149.7576 14.93122087782190
YUBILEINY (RS-30)       
1 32953U 08025A   22268.82091150  .00000024  00000+0  10000-3 0  9992
2 32953  82.5013 121.5342 0020081  41.9583 318.3029 12.43113386650809
FENGYUN 3A              
1 32958U 08026A   22268.75493992  .00000079  00000+0  58344-4 0  9994
2 32958  98.5140 227.3378 0009865  92.5467 267.6838 14.18741319742551
PRISM (HITOMI)          
1 33493U 09002B   22268.72774334  .00005686  00000+0  45421-3 0  9993
2 33493  98.2411 261.0823 0013507 209.2663 150.7804 15.00620398744021
STARS (KUKAI)           
1 33498U 09002G   22268.70967936  .00001422  00000+0  19410-3 0  9991
2 33498  98.1545 162.3554 0009388 292.7278  67.2940 14.80217609736688
KKS-1 (KISEKI)          
1 33499U 09002H   22268.43319352  .00000740  00000+0  11477-3 0  9992
2 33499  98.2015 152.0653 0009108   4.3868 355.7419 14.76136391734991
NOAA 19                 
1 33591U 09005A   22268.85798123  .00000142  00000+0  10154-3 0  9998
2 33591  99.1400 305.0674 0012939 265.6508  94.3185 14.12612938702621
SWISSCUBE               
1 35932U 09051B   22268.16581431  .00000596  00000+0  14352-3 0  9993
2 35932  98.5556 126.8363 0008656  98.8792 261.3386 14.56969452690611
BEESAT-1                
1 35933U 09051C   22268.60094883  .00000508  00000+0  12396-3 0  9992
2 35933  98.5492 128.8414 0006784 107.8579 252.3358 14.56972979690835
ITUPSAT1                
1 35935U 09051E   22268.81731666  .00000469  00000+0  11745-3 0  9997
2 35935  98.5592 129.0925 0009068 111.6127 248.6036 14.56074251690510
XIWANG-1 (HOPE-1)       
1 36122U 09072B   22268.44366626 -.00000044  00000+0 -36293-5 0  9996
2 36122 100.1954 236.1772 0008107 109.1714 251.0277 13.16372170613963
CARTOSAT-2B             
1 36795U 10035A   22268.74375607  .00000468  00000+0  70907-4 0  9992
2 36795  97.9510 327.9905 0012299 281.1871  78.7963 14.78684803658883
TISAT 1                 
1 36799U 10035E   22268.64210889  .00002067  00000+0  20305-3 0  9998
2 36799  98.1706 123.0094 0012686 122.4814 237.7632 14.93288187662916
FENGYUN 3B              
1 37214U 10059A   22268.81313627  .00000027  00000+0  38175-4 0  9999
2 37214  99.0953 276.5786 0023180  72.8126 287.5572 14.14265781615147
JUGNU                   
1 37839U 11058B   22266.81335205  .00000412  00000+0  77047-4 0  9995
2 37839  19.9615 298.8635 0018925 160.6877 357.1358 14.12808225566062
SRMSAT                  
1 37841U 11058D   22267.63279376  .00000403  00000+0  76308-4 0  9994
2 37841  19.9733  15.4068 0011954 354.4494  33.7292 14.10773758565267
M-CUBED & EXP-1 PRIME   
1 37855U 11061F   22268.41987789  .00014179  00000+0  59555-3 0  9993
2 37855 101.7206  80.6184 0148201 122.5521 239.0109 15.14170950596353
HORYU-2                 
1 38340U 12025D   22268.21858671  .00001325  00000+0  19620-3 0  9997
2 38340  98.1895 348.0873 0010066 267.5200  92.4857 14.76857355546964
METOP-B                 
1 38771U 12049A   22268.73873545  .00000072  00000+0  52931-4 0  9996
2 38771  98.7195 326.9975 0001836  97.2621  67.1940 14.21475411519971
SARAL                   
1 39086U 13009A   22268.51333511  .00000050  00000+0  35031-4 0  9991
2 39086  98.5491  92.6797 0001235  38.5184 321.6088 14.32029431500804
AAUSAT 3                
1 39087U 13009B   22268.52617174  .00000419  00000+0  15793-3 0  9994
2 39087  98.3937 105.5484 0012096 332.4905  27.5623 14.36257375501946
STRAND-1                
1 39090U 13009E   22268.47456746  .00000183  00000+0  78536-4 0  9991
2 39090  98.3999 103.9861 0008676 341.0897  18.9965 14.35329930501741
BRITE-AUSTRIA           
1 39091U 13009F   22268.53056521  .00000125  00000+0  58370-4 0  9996
2 39091  98.4018 103.2243 0010196 346.7495  13.3422 14.35302658501787
UNIBRITE                
1 39092U 13009G   22268.49151855  .00000123  00000+0  57929-4 0  9995
2 39092  98.4053 102.9673 0009033 342.7235  17.3642 14.35172982501734
SOMP                    
1 39134U 13015E   22268.78815954  .00017322  00000+0  57133-3 0  9993
2 39134  64.8596  92.0105 0035034 263.9691  95.7449 15.30967405522588
BEESAT-3                
1 39135U 13015F   22268.02522784  .00012614  00000+0  49034-3 0  9997
2 39135  64.8649 133.0995 0039028 268.1242  91.5418 15.25640600521293
BEESAT-2                
1 39136U 13015G   22267.94373417  .00011978  00000+0  48835-3 0  9995
2 39136  64.8738 142.1408 0022456 293.4443  66.4326 15.24552879521078
NEE-01 PEGASO           
1 39151U 13018B   22268.77244559  .00001285  00000+0  17201-3 0  9994
2 39151  97.9968  14.1312 0015486 291.7013  68.2550 14.81146045508539
CUBEBUG-1 (CAPITAN BETO)
1 39153U 13018D   22268.25148613  .00001567  00000+0  20465-3 0  9992
2 39153  98.0200  18.4205 0015325 287.5099  72.4438 14.81877109508533
